{
  "type": "FeatureCollection",
  "features": [
    {
      "type": "Feature",
      "properties": {
        "district": "북구"
      },
      "geometry": {
        "type": "Polygon",
        "coordinates": [
          [
            [
              129.29690140500009,
              35.64648201800003
            ],
            [
              129.29423144100008,
              35.58948956000006
            ],
            [
              129.2941994910001,
              35.58880732700004
            ],
            [
              129.3033962070001,
              35.58526461100007
            ],
            [
              129.31452907300002,
              35.584477320000076
            ],
            [
              129.34260325600007,
              35.587626439000076
            ],
            [
              129.34937978300002,
              35.58408367100003
            ],
            [
              129.35325208400002,
              35.55376691300006
            ],
            [
              129.35615631000007,
              35.550222647000055
            ],
            [
              129.35731798070654,
              35.54975006647092
            ],
            [
              129.358286076,
              35.54935624700005
            ],
            [
              129.36390091200008,
              35.54707205700004
            ],
            [
              129.37358166500007,
              35.542739794000056
            ],
            [
              129.3943952840001,
              35.51713527800007
            ],
            [
              129.39778354700002,
              35.51713527800007
            ],
            [
              129.4021398860001,
              35.51713527800007
            ],
            [
              129.4098844890001,
              35.54470903300006
            ],
            [
              129.41617697800007,
              35.55337311300008
            ],
            [
              129.422953505,
              35.558886132000055
            ],
            [
              129.43941078500006,
              35.56400502300005
            ],
            [
              129.45102768800007,
              35.56282376900003
            ],
            [
              129.45732017800003,
              35.56361127400004
            ],
            [
              129.45344787700003,
              35.573060723000026
            ],
            [
              129.4544159520001,
              35.58093441200003
            ],
            [
              129.463612667,
              35.591562665000026
            ],
            [
              129.46264459200006,
              35.59746664000005
            ],
            [
              129.45538402700004,
              35.61556944900008
            ],
            [
              129.4427990480001,
              35.629734007000025
            ],
            [
              129.44037886,
              35.64153588800008
            ],
            [
              129.4434362390001,
              35.64648201800003
            ],
            [
              129.40089386700004,
              35.65896506300004
            ],
            [
              129.38553134500012,
              35.665685894000035
            ],
            [
              129.3477159040001,
              35.67240615900005
            ],
            [
              129.32171778800011,
              35.66376571400008
            ],
            [
              129.3063552650001,
              35.65512433400005
            ],
            [
              129.29690140500009,
              35.64648201800003
            ]
          ]
        ]
      }
    },
    {
      "type": "Feature",
      "properties": {
        "district": "울주군"
      },
      "geometry": {
        "type": "Polygon",
        "coordinates": [
          [
            [
              129.0499193060001,
              35.63879917500003
            ],
            [
              129.02477203800004,
              35.627619319000075
            ],
            [
              129.01115847900007,
              35.61778282600005
            ],
            [
              129.0081332430001,
              35.60978978500003
            ],
            [
              129.0255283460001,
              35.59626128000008
            ],
            [
              129.0255283460001,
              35.59011120400004
            ],
            [
              129.01796525800012,
              35.580885204000026
            ],
            [
              128.98544397900002,
              35.56550617400006
            ],
            [
              128.9771245820001,
              35.55381613800006
            ],
            [
              128.989981832,
              35.539047339000035
            ],
            [
              128.99678861100006,
              35.53350833800005
            ],
            [
              128.99864154451612,
              35.530492477446735
            ],
            [
              129.0005701550001,
              35.52735344400003
            ],
            [
              129.03989821400012,
              35.51134851000006
            ],
            [
              129.07468842000003,
              35.50334484700005
            ],
            [
              129.0928398310001,
              35.49718764000005
            ],
            [
              129.11401647800005,
              35.481176693000066
            ],
            [
              129.12687372800008,
              35.45530611700008
            ],
            [
              129.15788239000005,
              35.433124715000076
            ],
            [
              129.16695809600003,
              35.42819468500005
            ],
            [
              129.20250461000012,
              35.42819468500005
            ],
            [
              129.2100676980001,
              35.41895006400006
            ],
            [
              129.21233662500003,
              35.40477291900004
            ],
            [
              129.2100676980001,
              35.39675864600008
            ],
            [
              129.199479375,
              35.385660647000066
            ],
            [
              129.199479375,
              35.37887778400005
            ],
            [
              129.20237083595757,
              35.377074879241135
            ],
            [
              129.21233662500003,
              35.37086093800008
            ],
            [
              129.2335132720001,
              35.37456112000007
            ],
            [
              129.247883139,
              35.37949443100007
            ],
            [
              129.25922777200003,
              35.37887778400005
            ],
            [
              129.26527824200002,
              35.375177800000074
            ],
            [
              129.28116072700004,
              35.35544168900003
            ],
            [
              129.29401797700007,
              35.322743142000036
            ],
            [
              129.30006844800005,
              35.32397729000007
            ],
            [
              129.31065677100003,
              35.32891369200007
            ],
            [
              129.32351402100005,
              35.34310416900007
            ],
            [
              129.32653925700004,
              35.34989003800007
            ],
            [
              129.33485865400007,
              35.35482485700004
            ],
            [
              129.35754791800002,
              35.35605851500003
            ],
            [
              129.35906053600002,
              35.36469359200004
            ],
            [
              129.34695959500004,
              35.372094351000044
            ],
            [
              129.34090912400006,
              35.380727712000066
            ],
            [
              129.35149744800003,
              35.389976717000025
            ],
            [
              129.365111006,
              35.397375157000056
            ],
            [
              129.35906053600002,
              35.42326435200005
            ],
            [
              129.36359838900012,
              35.43435717600005
            ],
            [
              129.36132946200007,
              35.44175154200008
            ],
            [
              129.35149744800003,
              35.44852911500004
            ],
            [
              129.31746355100006,
              35.47871318700004
            ],
            [
              129.291749051,
              35.492877314000054
            ],
            [
              129.28421651551832,
              35.50820808924732
            ],
            [
              129.28418596300003,
              35.50827027200006
            ],
            [
              129.2841492923756,
              35.50830385211612
            ],
            [
              129.27208502200006,
              35.51935137600003
            ],
            [
              129.2509083750001,
              35.52612240800005
            ],
            [
              129.2498495035348,
              35.52698413500008
            ],
            [
              129.24258897800007,
              35.53289287000007
            ],
            [
              129.24602262000008,
              35.53848114800007
            ],
            [
              129.24863944800006,
              35.542739794000056
            ],
            [
              129.2539336100001,
              35.555662046000066
            ],
            [
              129.29423144100008,
              35.58948956000006
            ],
            [
              129.29690140500009,
              35.64648201800003
            ],
            [
              129.27799368400008,
              35.64648201800003
            ],
            [
              129.2709032890001,
              35.64840261300003
            ],
            [
              129.26026769600003,
              35.665685894000035
            ],
            [
              129.263812894,
              35.67336615100004
            ],
            [
              129.2744484870001,
              35.67912585900007
            ],
            [
              129.2709032890001,
              35.68872444900006
            ],
            [
              129.24608690600007,
              35.699281563000056
            ],
            [
              129.205908,
              35.71079682200008
            ],
            [
              129.19172720900008,
              35.711756351000076
            ],
            [
              129.1810916170001,
              35.709837280000045
            ],
            [
              129.16336562900005,
              35.709837280000045
            ],
            [
              129.14209444300002,
              35.71271587000007
            ],
            [
              129.10191553700008,
              35.703120167000066
            ],
            [
              129.091279944,
              35.699281563000056
            ],
            [
              129.07946261900008,
              35.69256356100004
            ],
            [
              129.07000875900007,
              35.67240615900005
            ],
            [
              129.07119049100004,
              35.65896506300004
            ],
            [
              129.07000875900007,
              35.64456137600007
            ],
            [
              129.0499193060001,
              35.63879917500003
            ]
          ]
        ]
      }
    },
    {
      "type": "Feature",
      "properties": {
        "district": "동구"
      },
      "geometry": {
        "type": "Polygon",
        "coordinates": [
          [
            [
              129.39778354700002,
              35.51713527800007
            ],
            [
              129.395847397,
              35.502950799000075
            ],
            [
              129.39923566000004,
              35.50019241600006
            ],
            [
              129.4040760370001,
              35.499798353000074
            ],
            [
              129.40843237600006,
              35.497039861000076
            ],
            [
              129.40843237600006,
              35.489946160000045
            ],
            [
              129.4040760370001,
              35.48166938500003
            ],
            [
              129.40504411200004,
              35.47496851300008
            ],
            [
              129.413272752,
              35.47220916900005
            ],
            [
              129.41617697800007,
              35.47575688000006
            ],
            [
              129.4156929400001,
              35.47969859800003
            ],
            [
              129.4273098440001,
              35.48403426500005
            ],
            [
              129.43215022000004,
              35.48048691900004
            ],
            [
              129.43747463400007,
              35.48364012300004
            ],
            [
              129.4389267470001,
              35.490340271000036
            ],
            [
              129.44328308600006,
              35.491522592000024
            ],
            [
              129.4427990480001,
              35.494675364000045
            ],
            [
              129.4389267470001,
              35.49428127400006
            ],
            [
              129.434570408,
              35.49073438000005
            ],
            [
              129.430698107,
              35.49231079700007
            ],
            [
              129.43360233300007,
              35.499798353000074
            ],
            [
              129.44231501100012,
              35.50216269900005
            ],
            [
              129.44231501100012,
              35.50610312200007
            ],
            [
              129.432634258,
              35.50610312200007
            ],
            [
              129.43408637100003,
              35.51083137400008
            ],
            [
              129.44521923700006,
              35.510043352000025
            ],
            [
              129.44570327400004,
              35.51831720400003
            ],
            [
              129.448123462,
              35.52304473700008
            ],
            [
              129.44570327400004,
              35.52383263200005
            ],
            [
              129.43941078500006,
              35.52107496600007
            ],
            [
              129.43844271000012,
              35.527771992000055
            ],
            [
              129.44231501100012,
              35.52895376200007
            ],
            [
              129.44763942500003,
              35.52737806400006
            ],
            [
              129.453931914,
              35.52895376200007
            ],
            [
              129.4524798010001,
              35.54549671600006
            ],
            [
              129.45296383900006,
              35.549041190000025
            ],
            [
              129.45683614000006,
              35.55219170300006
            ],
            [
              129.45732017800003,
              35.56361127400004
            ],
            [
              129.45102768800007,
              35.56282376900003
            ],
            [
              129.43941078500006,
              35.56400502300005
            ],
            [
              129.422953505,
              35.558886132000055
            ],
            [
              129.41617697800007,
              35.55337311300008
            ],
            [
              129.4098844890001,
              35.54470903300006
            ],
            [
              129.4021398860001,
              35.51713527800007
            ],
            [
              129.39778354700002,
              35.51713527800007
            ]
          ]
        ]
      }
    },
    {
      "type": "Feature",
      "properties": {
        "district": "남구"
      },
      "geometry": {
        "type": "Polygon",
        "coordinates": [
          [
            [
              129.35731798070654,
              35.54975006647092
            ],
            [
              129.33147039000005,
              35.549041190000025
            ],
            [
              129.31065677100003,
              35.54864736800005
            ],
            [
              129.3053323570001,
              35.54785971600006
            ],
            [
              129.29661968000005,
              35.543527495000035
            ],
            [
              129.2646731950001,
              35.54431518900003
            ],
            [
              129.24821591500006,
              35.53919504000004
            ],
            [
              129.24602262000008,
              35.53848114800007
            ],
            [
              129.24258897800007,
              35.53289287000007
            ],
            [
              129.2498495035348,
              35.52698413500008
            ],
            [
              129.25450840500002,
              35.52698413500008
            ],
            [
              129.2646731950001,
              35.52580233600003
            ],
            [
              129.27532202300006,
              35.52028704400004
            ],
            [
              129.2801624000001,
              35.51398338800004
            ],
            [
              129.2841492923756,
              35.50830385211612
            ],
            [
              129.28418596300003,
              35.50827027200006
            ],
            [
              129.28421651551832,
              35.50820808924732
            ],
            [
              129.2879070020001,
              35.502950799000075
            ],
            [
              129.29274737900005,
              35.496645783000076
            ],
            [
              129.3014600560001,
              35.49428127400006
            ],
            [
              129.31017273400005,
              35.487581454000065
            ],
            [
              129.32711405100008,
              35.47851610300006
            ],
            [
              129.33485865400007,
              35.479304435000074
            ],
            [
              129.33969903000002,
              35.47693941600005
            ],
            [
              129.34550748200002,
              35.47260336700003
            ],
            [
              129.3498638210001,
              35.46471904200007
            ],
            [
              129.35664034800004,
              35.45841102600008
            ],
            [
              129.36680513800002,
              35.454073977000064
            ],
            [
              129.3711614770001,
              35.45604539200008
            ],
            [
              129.3750337780001,
              35.462353594000035
            ],
            [
              129.38132626800007,
              35.46669019600006
            ],
            [
              129.38181030500004,
              35.469055516000026
            ],
            [
              129.37939011700007,
              35.47220916900005
            ],
            [
              129.38326241800007,
              35.475362698000026
            ],
            [
              129.386166644,
              35.484428405000074
            ],
            [
              129.386166644,
              35.491128487000026
            ],
            [
              129.3769699290001,
              35.499798353000074
            ],
            [
              129.3711614770001,
              35.49901022200004
            ],
            [
              129.36244879900005,
              35.50570908900005
            ],
            [
              129.3750337780001,
              35.50176864700006
            ],
            [
              129.38713471900007,
              35.50334484700005
            ],
            [
              129.3847145310001,
              35.516347317000054
            ],
            [
              129.37551781600007,
              35.51831720400003
            ],
            [
              129.37358166500007,
              35.52304473700008
            ],
            [
              129.37454974000002,
              35.53092334000007
            ],
            [
              129.36002861100008,
              35.542345940000075
            ],
            [
              129.358286076,
              35.54935624700005
            ],
            [
              129.35731798070654,
              35.54975006647092
            ]
          ]
        ]
      }
    },
    {
      "type": "Feature",
      "properties": {
        "district": "중구"
      },
      "geometry": {
        "type": "Polygon",
        "coordinates": [
          [
            [
              129.29423144100008,
              35.58948956000006
            ],
            [
              129.2539336100001,
              35.555662046000066
            ],
            [
              129.24863944800006,
              35.542739794000056
            ],
            [
              129.24602262000008,
              35.53848114800007
            ],
            [
              129.24821591500006,
              35.53919504000004
            ],
            [
              129.2646731950001,
              35.54431518900003
            ],
            [
              129.29661968000005,
              35.543527495000035
            ],
            [
              129.3053323570001,
              35.54785971600006
            ],
            [
              129.31065677100003,
              35.54864736800005
            ],
            [
              129.33147039000005,
              35.549041190000025
            ],
            [
              129.35731798070654,
              35.54975006647092
            ],
            [
              129.35615631000007,
              35.550222647000055
            ],
            [
              129.35325208400002,
              35.55376691300006
            ],
            [
              129.34937978300002,
              35.58408367100003
            ],
            [
              129.34260325600007,
              35.587626439000076
            ],
            [
              129.31452907300002,
              35.584477320000076
            ],
            [
              129.3033962070001,
              35.58526461100007
            ],
            [
              129.2941994910001,
              35.58880732700004
            ],
            [
              129.29423144100008,
              35.58948956000006
            ]
          ]
        ]
      }
    }
  ]
}